{
"type": "FeatureCollection",
"name": "gcc-states",
"features": [
{ "type": "Feature", "properties": { }, "geometry": { "type": "Polygon", "coordinates": [ [ [ 53.62639, 15.24752 ], [ 51.93426, 18.81291 ], [ 49.06798, 18.32187 ], [ 48.31413, 18.03696 ], [ 47.66913, 17.16329 ], [ 47.06192, 16.82967 ], [ 46.70727, 17.15247 ], [ 44.64829, 17.21118 ], [ 43.67752, 17.33884 ], [ 43.38913, 17.46988 ], [ 43.31085, 16.75063 ], [ 43.25867, 16.62435 ], [ 42.98434, 16.35064 ], [ 41.47297, 16.22309 ], [ 40.30883, 17.45548 ], [ 34.43489, 27.73044 ], [ 34.45518, 28.0538 ], [ 34.74014, 29.09218 ], [ 34.8668, 29.40793 ], [ 34.97225, 29.37303 ], [ 36.06404, 29.20269 ], [ 36.75654, 29.88094 ], [ 37.94917, 30.50598 ], [ 36.94427, 31.513 ], [ 39.20883, 32.19653 ], [ 40.43518, 32.02671 ], [ 42.11177, 31.1343 ], [ 43.00391, 30.49729 ], [ 44.74314, 29.23411 ], [ 46.50295, 29.10881 ], [ 47.20721, 30.14617 ], [ 47.68238, 30.11068 ], [ 47.84614, 30.05186 ], [ 47.94382, 30.00311 ], [ 48.06415, 30.04324 ], [ 48.2547, 30.03581 ], [ 48.62197, 29.81902 ], [ 50.41625, 28.17372 ], [ 52.62451, 25.92841 ], [ 54.97009, 25.54244 ], [ 55.46722, 25.88888 ], [ 55.94787, 26.38941 ], [ 56.2912, 26.6671 ], [ 56.57135, 26.7309 ], [ 56.73065, 26.67446 ], [ 56.81854, 26.51236 ], [ 56.98608, 25.22482 ], [ 57.6331, 24.40484 ], [ 60.94748, 22.87821 ], [ 59.16578, 19.41199 ], [ 56.89818, 16.95173 ], [ 53.62639, 15.24752 ] ] ] } }
]
}
