{"type":"FeatureCollection","features":[{"type":"Feature","properties":{"id":12559,"shape":"Polygon"},"geometry":{"type":"Polygon","coordinates":[[[69.25507,39.82963],[69.31137,39.50828],[70.27817,39.51464],[70.60913,39.54747],[70.75058,39.37253],[71.00395,39.37518],[71.54778,39.46217],[71.74278,39.33589],[71.79428,39.26629],[72.24335,39.15136],[72.39784,39.31146],[72.76726,39.33642],[73.20884,39.34459],[73.5948,39.4513],[73.90709,39.46429],[73.96271,39.60357],[73.93009,39.70573],[73.94005,39.88867],[74.1172,40.07702],[74.36096,40.08175],[74.93225,40.34131],[75.26184,40.44642],[75.38921,40.54603],[75.58868,40.59727],[75.66421,40.268],[75.94162,40.27848],[76.36322,40.32456],[76.59393,40.4668],[76.90704,40.98508],[77.85049,40.98094],[78.33389,41.36341],[79.82666,41.88183],[80.2771,42.0442],[80.18302,42.21835],[80.16243,42.29407],[79.97841,42.44829],[79.70169,42.48982],[79.21005,42.69001],[79.209651,42.71365],[79.42276,42.797922],[76.982229,43.527305],[75.182284,42.89144],[75.10597,42.90917],[74.87251,42.99862],[74.59717,43.13907],[74.23324,43.2812],[73.96683,43.2362],[73.53424,43.04481],[73.37494,42.53487],[72.2866,42.77474],[71.86638,42.83947],[71.53782,42.80699],[71.3792,42.80472],[71.36478,42.77373],[71.25732,42.77877],[71.26556,42.74752],[71.17458,42.67613],[70.99571,42.59707],[70.86233,42.32149],[70.85941,42.30131],[70.88413,42.25876],[70.94022,42.2592],[71.00326,42.24377],[71.06644,42.27223],[71.22986,42.17664],[70.86113,42.06459],[70.53429,41.82762],[70.47386,41.74417],[70.19852,41.6252],[70.14633,41.51423],[70.48691,41.38763],[70.69427,41.4314],[70.77599,41.18434],[70.94627,41.16444],[71.11931,41.13807],[71.2587,41.17271],[71.26659,41.0954],[71.39774,41.09953],[71.45954,41.15462],[71.46572,41.20733],[71.464,41.28503],[71.5694,41.28942],[71.63635,41.33712],[71.65318,41.35903],[71.68236,41.41158],[71.68407,41.43012],[71.67103,41.45199],[71.60854,41.47669],[71.66828,41.48955],[71.693,41.52143],[71.72012,41.53146],[71.70982,41.49469],[71.693,41.44839],[71.69163,41.41441],[71.78879,41.41338],[71.83136,41.35723],[71.89522,41.30102],[71.84578,41.17555],[71.93882,41.14221],[72.01023,41.13885],[72.06894,41.11299],[72.13589,41.15384],[72.14447,41.12359],[72.18224,41.09876],[72.19906,41.03715],[72.1479,41.01812],[72.16833,40.98495],[72.26154,41.00154],[72.29313,41.02394],[72.33038,41.03197],[72.34754,41.05256],[72.37415,41.03171],[72.47543,40.96849],[72.54822,40.94412],[72.55852,40.86939],[72.68623,40.84239],[72.81704,40.84394],[72.8912,40.81329],[72.93703,40.79757],[72.96209,40.80147],[72.97342,40.81602],[72.98269,40.82394],[73.00793,40.83511],[73.13805,40.83381],[73.0711,40.77378],[72.99265,40.76962],[72.94304,40.7401],[72.89703,40.72202],[72.87231,40.7133],[72.84897,40.71864],[72.75627,40.6848],[72.69173,40.60249],[72.48093,40.56233],[72.41569,40.62803],[72.33398,40.60926],[72.37106,40.51067],[72.40265,40.42291],[72.25227,40.49083],[72.174,40.50284],[72.0813,40.45531],[71.94878,40.31618],[72.02431,40.28267],[71.88217,40.26957],[71.83617,40.26224],[71.72905,40.16891],[71.70914,40.2439],[71.6748,40.27848],[71.37817,40.32194],[71.2793,40.35073],[71.00326,40.33032],[70.89065,40.31933],[70.87829,40.2224],[70.63522,40.11221],[70.53841,40.09068],[70.20264,40.1752],[70.02334,40.23125],[69.99767,40.23689],[69.89545,40.20608],[69.82618,40.19087],[69.78464,40.18097],[69.69551,40.13719],[69.6731,40.12915],[69.67422,40.12367],[69.65212,40.12423],[69.57779,40.11274],[69.56268,40.13112],[69.53247,40.12744],[69.49608,40.04444],[69.52217,39.95712],[69.46861,39.94449],[69.44527,39.99343],[69.3512,40.03655],[69.28596,39.93343],[69.25507,39.82963]]]}}]}