{"type":"FeatureCollection","features":[{"type":"Feature","properties":{"id":12313,"shape":"Polygon"},"geometry":{"type":"Polygon","coordinates":[[[67.3201,39.31411],[67.32697,39.22587],[67.60437,39.16893],[67.68539,38.99144],[67.73346,38.99037],[68.09257,39.00585],[68.05927,38.80226],[68.09189,38.73507],[68.05206,38.71927],[68.05103,38.56615],[68.0579,38.53044],[68.10562,38.46999],[68.06408,38.42401],[68.05756,38.39146],[68.14785,38.37531],[68.20519,38.33331],[68.29617,38.24789],[68.39745,38.19071],[68.36522,38.08083],[68.31674,38.04086],[68.29102,38.01916],[68.2799,37.98585],[68.27282,37.96396],[68.26595,37.92064],[68.22544,37.93905],[68.13206,37.93824],[68.03181,37.74764],[67.85362,37.63843],[67.82341,37.55057],[67.78633,37.42007],[67.79011,37.21201],[67.77535,37.18767],[67.76814,37.0938],[67.78942,37.07271],[67.9074,37.01056],[67.9981,36.93235],[68.01189,36.91998],[68.05927,36.923],[68.29102,37.00776],[68.41433,37.09767],[68.54095,37.1584],[68.60388,37.19143],[68.82353,37.24036],[68.92479,37.26613],[68.9514,37.29058],[69.0144,37.26094],[69.07396,37.20203],[69.12392,37.15471],[69.20649,37.1168],[69.24356,37.09092],[69.26193,37.09079],[69.31776,37.11094],[69.40235,37.15758],[69.46003,37.22295],[69.48303,37.26176],[69.39257,37.37032],[69.38013,37.3836],[69.3996,37.43779],[69.42604,37.4517],[69.49779,37.52498],[69.52423,37.56934],[69.65233,37.56557],[69.80541,37.56336],[69.95604,37.56071],[70.01203,37.54091],[70.11337,37.51899],[70.17414,37.51844],[70.25247,37.5854],[70.32965,37.69765],[70.2837,37.81867],[70.25406,37.83635],[70.22294,37.83722],[70.19082,37.85132],[70.19419,37.91046],[70.27113,37.93269],[70.43541,38.09066],[70.50986,38.1181],[70.50923,38.16293],[70.63207,38.28603],[70.61623,38.3431],[70.65357,38.34378],[70.69489,38.36468],[70.84054,38.43555],[70.85784,38.43554],[70.87379,38.46289],[70.89427,38.45822],[70.9053,38.43351],[71.18131,38.34106],[71.25021,38.30545],[71.34745,38.15332],[71.31329,38.09998],[71.30682,38.06139],[71.28015,38.04485],[71.27466,38.00753],[71.26162,37.98588],[71.24565,37.92104],[71.29485,37.91401],[71.32564,37.88271],[71.58381,37.81778],[71.57101,37.80026],[71.53746,37.78508],[71.52393,37.76505],[71.53537,37.7125],[71.51906,37.64298],[71.50211,37.61505],[71.48941,37.53559],[71.51499,37.47949],[71.47156,37.40344],[71.47251,37.3815],[71.48872,37.37043],[71.4822,37.33372],[71.48443,37.27706],[71.45233,37.21516],[71.44306,37.17714],[71.43001,37.09134],[71.4271,37.0586],[71.45868,36.96018],[71.53318,36.82426],[71.55516,36.76392],[71.62914,36.69086],[71.66863,36.66374],[71.78741,36.67117],[71.84612,36.67778],[71.87393,36.69182],[71.96972,36.75732],[72.12421,36.84693],[72.34291,36.97431],[72.472,36.98829],[72.59422,37.00283],[72.67387,37.01599],[72.81361,37.22103],[72.86442,37.22431],[72.9578,37.28334],[73.0965,37.31666],[73.1765,37.39307],[73.61046,37.42853],[73.59673,37.24181],[73.82675,37.20354],[74.22294,37.31175],[74.28749,37.37834],[74.79355,37.33905],[74.87732,37.209],[75.13756,37.30902],[75.16571,37.40944],[75.00435,37.81738],[74.92538,38.03944],[74.81895,38.20689],[74.70772,38.44122],[74.1481,38.67961],[73.85902,38.69033],[73.89953,38.9466],[73.668488,39.454365],[73.90709,39.46429],[73.96271,39.60357],[73.93009,39.70573],[73.94005,39.88867],[74.1172,40.07702],[74.36096,40.08175],[74.93225,40.34131],[75.26184,40.44642],[75.38921,40.54603],[75.58868,40.59727],[75.66421,40.268],[75.94162,40.27848],[76.36322,40.32456],[76.59393,40.4668],[76.90704,40.98508],[77.85049,40.98094],[78.33389,41.36341],[79.82666,41.88183],[80.2771,42.0442],[80.18302,42.21835],[80.16243,42.29407],[80.074767,42.367537],[80.205201,42.384877],[78.620085,44.195218],[75.752777,43.969193],[74.239056,43.380958],[73.532924,43.104964],[73.608824,43.077808],[73.53424,43.04481],[73.37494,42.53487],[72.2866,42.77474],[71.86638,42.83947],[71.53782,42.80699],[71.3792,42.80472],[71.36478,42.77373],[71.25732,42.77877],[71.26556,42.74752],[71.17458,42.67613],[70.99571,42.59707],[70.86233,42.32149],[70.85941,42.30131],[70.88413,42.25876],[70.94022,42.2592],[71.00326,42.24377],[71.06644,42.27223],[71.22986,42.17664],[70.86113,42.06459],[70.53429,41.82762],[70.47386,41.74417],[70.19852,41.6252],[70.14633,41.51423],[70.158537,41.509692],[70.064625,41.483663],[69.496748,40.815628],[69.3718,40.7938],[69.3433,40.77846],[69.35707,40.74218],[69.31995,40.70355],[69.32991,40.65017],[69.2609,40.58163],[69.22348,40.56103],[69.19807,40.54929],[69.26043,40.4613],[69.28459,40.40225],[69.29592,40.3659],[69.32751,40.33111],[69.30141,40.28922],[69.24271,40.30955],[69.24305,40.27955],[69.24882,40.26202],[69.28322,40.24652],[69.28837,40.20222],[69.19807,40.22136],[69.16546,40.21624],[69.03877,40.23813],[68.86093,40.21454],[68.81699,40.19304],[68.78265,40.21192],[68.52447,40.15001],[68.51898,40.11431],[68.63228,40.06021],[68.68242,40.09476],[68.81761,39.88991],[68.78403,39.88603],[68.71462,39.87406],[68.62541,39.86337],[68.57391,39.72514],[68.59657,39.65593],[68.53615,39.59034],[68.40189,39.54888],[68.25625,39.56302],[68.17189,39.56831],[67.78496,39.66491],[67.70119,39.66861],[67.44163,39.58294],[67.38327,39.52682],[67.43546,39.41763],[67.45949,39.38473],[67.45811,39.32899],[67.3201,39.31411]]]}}]}