{"type":"FeatureCollection","features":[{"type":"Feature","properties":{"id":12549,"shape":"Polygon"},"geometry":{"type":"Polygon","coordinates":[[[69.25507,39.82963],[69.31137,39.50828],[70.27817,39.51464],[70.60913,39.54747],[70.75058,39.37253],[71.00395,39.37518],[71.54778,39.46217],[71.74278,39.33589],[71.79428,39.26629],[72.24335,39.15136],[72.39784,39.31146],[72.76726,39.33642],[73.20884,39.34459],[73.5948,39.4513],[73.90709,39.46429],[73.96271,39.60357],[73.93009,39.70573],[73.94005,39.88867],[74.1172,40.07702],[74.36096,40.08175],[74.93225,40.34131],[75.26184,40.44642],[75.38921,40.54603],[75.58868,40.59727],[75.66421,40.268],[75.94162,40.27848],[76.36322,40.32456],[76.59393,40.4668],[76.90704,40.98508],[77.85049,40.98094],[78.33389,41.36341],[79.82666,41.88183],[80.2771,42.0442],[80.18302,42.21835],[80.16243,42.29407],[80.126819,42.323914],[80.336037,42.333755],[79.987129,43.240921],[77.682338,44.176828],[74.941179,43.561636],[74.17728,43.271748],[73.96683,43.2362],[73.53424,43.04481],[73.37494,42.53487],[72.2866,42.77474],[71.86638,42.83947],[71.53782,42.80699],[71.3792,42.80472],[71.36478,42.77373],[71.25732,42.77877],[71.26556,42.74752],[71.17458,42.67613],[70.99571,42.59707],[70.86233,42.32149],[70.85941,42.30131],[70.88413,42.25876],[70.94022,42.2592],[71.00326,42.24377],[71.06644,42.27223],[71.22986,42.17664],[70.86113,42.06459],[70.53429,41.82762],[70.47386,41.74417],[70.19852,41.6252],[70.14633,41.51423],[70.175737,41.503299],[69.9434,41.419344],[69.256379,40.383538],[69.344037,40.025228],[69.28596,39.93343],[69.25507,39.82963]]]}}]}