{"type":"FeatureCollection","features":[{"type":"Feature","properties":{"id":7464,"shape":"Polygon"},"geometry":{"type":"Polygon","coordinates":[[[73.74161,34.34202],[73.76942,34.32586],[73.87756,34.31565],[73.93078,34.27651],[73.98125,34.26119],[73.99155,34.19448],[73.95,34.17574],[73.90057,34.11038],[73.88615,34.06205],[73.89645,34.0151],[73.97919,34.00173],[74.07772,34.02933],[74.1354,34.02506],[74.26037,33.96386],[74.22329,33.8784],[74.04922,33.82879],[73.94691,33.72605],[73.96751,33.64035],[74.01215,33.57229],[74.13299,33.53796],[74.15771,33.35806],[74.00803,33.27773],[73.98125,33.22605],[74.15909,33.07486],[74.45366,32.77111],[74.51408,32.73704],[74.6418,32.73184],[74.62463,32.59831],[74.67201,32.4837],[74.7139,32.47096],[74.94461,32.43967],[75.12794,32.40315],[75.17601,32.40199],[75.36072,32.23662],[75.32295,32.22384],[77.733655,30.462017],[77.77393,30.48685],[77.79865,30.49972],[77.80741,30.49683],[77.82303,30.50075],[77.83298,30.52944],[77.82646,30.55664],[77.8014,30.6131],[77.80003,30.66095],[77.76775,30.70819],[77.71935,30.75777],[77.76878,30.82472],[77.81136,30.8539],[77.81445,30.88867],[77.84603,30.95082],[77.90886,31.12644],[78.03314,31.14172],[78.15124,31.17873],[78.32565,31.20693],[78.89007,31.07176],[79.04388,31.08352],[79.02122,31.17286],[78.88389,31.35716],[78.91837,31.39745],[78.81935,31.34953],[78.85712,31.60427],[78.80081,32.00225],[78.6961,32.11021],[78.44101,32.54334],[78.67584,32.59542],[78.78982,32.43677],[78.9299,32.31731],[79.10019,32.34516],[79.43939,32.5005],[79.48883,32.70873],[79.18396,33.19273],[78.85017,33.5854],[78.83879,34.0256],[79.13551,34.23658],[79.12999,34.39852],[78.37472,34.70795],[78.11072,35.26918],[78.17734,35.55346],[77.46185,35.52776],[76.83838,35.73091],[76.74637,35.6718],[76.70929,35.55793],[77.03064,35.10194],[76.76559,34.95406],[76.47514,34.80591],[76.25748,34.72553],[76.14899,34.65044],[76.06968,34.69957],[76.02161,34.69082],[75.95055,34.6414],[75.77305,34.54078],[75.40363,34.56595],[75.36484,34.55379],[75.27729,34.64394],[75.14305,34.66992],[75.03559,34.64987],[74.93431,34.68602],[74.71149,34.70041],[74.58824,34.76418],[74.48387,34.78646],[74.38465,34.79463],[74.30569,34.78871],[73.95927,34.69279],[73.92769,34.64564],[73.91773,34.60919],[73.93284,34.56934],[73.80134,34.4307],[73.76976,34.39926],[73.74573,34.37858],[73.74161,34.34202]]]}}]}