{
"type": "FeatureCollection",
"name": "mongolia",
"features": [
{ "type": "Feature", "properties": { }, "geometry": { "type": "Polygon", "coordinates": [ [ [ 87.75055, 49.16914 ], [ 88.13507, 49.49846 ], [ 90.36682, 50.26182 ], [ 92.46502, 50.96754 ], [ 93.51746, 50.67875 ], [ 94.3045, 50.64701 ], [ 94.68421, 50.12987 ], [ 95.52203, 50.10405 ], [ 97.26773, 49.93358 ], [ 98.06502, 50.09985 ], [ 98.24323, 50.38599 ], [ 97.96126, 50.6586 ], [ 97.76458, 51.01894 ], [ 98.03207, 51.48867 ], [ 98.87695, 52.19582 ], [ 100.6365, 51.74776 ], [ 102.2388, 51.39064 ], [ 102.1652, 51.1465 ], [ 102.6354, 50.49961 ], [ 103.2954, 50.33098 ], [ 103.3993, 50.23852 ], [ 105.3507, 50.49782 ], [ 105.8484, 50.44976 ], [ 106.0763, 50.40306 ], [ 106.0968, 50.36059 ], [ 106.2964, 50.32028 ], [ 106.4853, 50.32756 ], [ 106.5121, 50.35598 ], [ 106.8228, 50.30864 ], [ 107.9709, 49.96447 ], [ 109.9127, 49.27856 ], [ 112.4808, 49.54214 ], [ 112.8007, 49.5564 ], [ 113.1976, 49.86189 ], [ 113.4544, 49.97861 ], [ 114.3169, 50.31741 ], [ 115.0165, 50.20289 ], [ 115.3029, 49.97684 ], [ 115.7396, 49.89021 ], [ 116.1677, 50.06098 ], [ 116.6337, 49.93965 ], [ 116.7516, 49.8397 ], [ 115.8536, 48.50751 ], [ 115.8261, 47.85003 ], [ 118.158, 48.07992 ], [ 118.5672, 48.023 ], [ 119.1275, 47.71161 ], [ 119.7427, 47.25873 ], [ 119.9597, 46.91463 ], [ 120.0201, 46.65698 ], [ 119.6823, 46.54942 ], [ 118.6985, 46.64162 ], [ 115.8069, 45.41388 ], [ 113.5382, 44.64736 ], [ 111.9883, 45.05041 ], [ 111.593, 44.56407 ], [ 111.9946, 43.83849 ], [ 111.9706, 43.69071 ], [ 110.1208, 42.53389 ], [ 104.87, 41.50035 ], [ 101.9366, 42.16341 ], [ 101.2845, 42.57963 ], [ 99.44274, 42.4802 ], [ 96.36932, 42.69253 ], [ 94.93011, 44.16842 ], [ 92.14233, 44.93759 ], [ 90.76217, 45.13749 ], [ 90.6041, 45.64755 ], [ 90.86723, 46.07347 ], [ 90.89567, 46.63303 ], [ 90.06361, 47.72542 ], [ 88.99687, 47.93549 ], [ 87.90879, 48.57941 ], [ 87.70255, 48.8656 ], [ 87.75055, 49.16914 ] ] ] } }
]
}
