{"type":"FeatureCollection","features":[{"type":"Feature","properties":{"id":9348,"shape":"Polygon"},"geometry":{"type":"Polygon","coordinates":[[[34.43489,27.73044],[40.30883,17.45548],[41.47297,16.22309],[42.98434,16.35064],[43.25867,16.62435],[43.31085,16.75063],[43.38913,17.46988],[43.67752,17.33884],[44.64829,17.21118],[46.70727,17.15247],[47.06192,16.82967],[47.66913,17.16329],[48.31413,18.03696],[49.06798,18.32187],[51.93426,18.81291],[54.699927,20.220966],[55.40281,21.861499],[55.139229,22.43134],[52.371627,22.755921],[51.844464,24.166802],[52.62451,25.92841],[50.41625,28.17372],[49.372115,29.134349],[48.908658,28.844674],[48.348548,28.68095],[47.744507,28.642389],[47.601734,29.084977],[46.50295,29.10881],[44.74314,29.23411],[43.00391,30.49729],[42.11177,31.1343],[40.43518,32.02671],[39.20883,32.19653],[36.94427,31.513],[37.94917,30.50598],[36.75654,29.88094],[36.06404,29.20269],[34.97225,29.37303],[34.8668,29.40793],[34.74014,29.09218],[34.45518,28.0538],[34.43489,27.73044]]]}}]}